<?xml version="1.0" encoding="UTF-8"?>
<ndm xmlns:xsi="http://www.w3.org/2001/XMLSchema-instance" xsi:noNamespaceSchemaLocation="https://sanaregistry.org/r/ndmxml_unqualified/ndmxml-2.0.0-master-2.0.xsd">
<omm id="CCSDS_OMM_VERS" version="2.0">
<header><CREATION_DATE/><ORIGINATOR/></header><body><segment><metadata><OBJECT_NAME>ORBCOMM FM24</OBJECT_NAME><OBJECT_ID>1998-053D</OBJECT_ID><CENTER_NAME>EARTH</CENTER_NAME><REF_FRAME>TEME</REF_FRAME><TIME_SYSTEM>UTC</TIME_SYSTEM><MEAN_ELEMENT_THEORY>SGP4</MEAN_ELEMENT_THEORY></metadata><data><meanElements><EPOCH>2025-04-16T13:05:34.716480</EPOCH><MEAN_MOTION>14.37921737</MEAN_MOTION><ECCENTRICITY>.0003711</ECCENTRICITY><INCLINATION>45.0063</INCLINATION><RA_OF_ASC_NODE>201.3307</RA_OF_ASC_NODE><ARG_OF_PERICENTER>253.4499</ARG_OF_PERICENTER><MEAN_ANOMALY>106.5942</MEAN_ANOMALY></meanElements><tleParameters><EPHEMERIS_TYPE>0</EPHEMERIS_TYPE><CLASSIFICATION_TYPE>U</CLASSIFICATION_TYPE><NORAD_CAT_ID>25478</NORAD_CAT_ID><ELEMENT_SET_NO>999</ELEMENT_SET_NO><REV_AT_EPOCH>38857</REV_AT_EPOCH><BSTAR>.75864E-3</BSTAR><MEAN_MOTION_DOT>.2171E-4</MEAN_MOTION_DOT><MEAN_MOTION_DDOT>0</MEAN_MOTION_DDOT></tleParameters></data></segment></body></omm>
<omm id="CCSDS_OMM_VERS" version="2.0">
<header><CREATION_DATE/><ORIGINATOR/></header><body><segment><metadata><OBJECT_NAME>ORBCOMM FM25</OBJECT_NAME><OBJECT_ID>1998-053E</OBJECT_ID><CENTER_NAME>EARTH</CENTER_NAME><REF_FRAME>TEME</REF_FRAME><TIME_SYSTEM>UTC</TIME_SYSTEM><MEAN_ELEMENT_THEORY>SGP4</MEAN_ELEMENT_THEORY></metadata><data><meanElements><EPOCH>2025-04-16T15:42:51.911136</EPOCH><MEAN_MOTION>14.37896688</MEAN_MOTION><ECCENTRICITY>.0005568</ECCENTRICITY><INCLINATION>45.0055</INCLINATION><RA_OF_ASC_NODE>199.0762</RA_OF_ASC_NODE><ARG_OF_PERICENTER>275.3981</ARG_OF_PERICENTER><MEAN_ANOMALY>84.6232</MEAN_ANOMALY></meanElements><tleParameters><EPHEMERIS_TYPE>0</EPHEMERIS_TYPE><CLASSIFICATION_TYPE>U</CLASSIFICATION_TYPE><NORAD_CAT_ID>25479</NORAD_CAT_ID><ELEMENT_SET_NO>999</ELEMENT_SET_NO><REV_AT_EPOCH>38888</REV_AT_EPOCH><BSTAR>.77984E-3</BSTAR><MEAN_MOTION_DOT>.2234E-4</MEAN_MOTION_DOT><MEAN_MOTION_DDOT>0</MEAN_MOTION_DDOT></tleParameters></data></segment></body></omm>
<omm id="CCSDS_OMM_VERS" version="2.0">
<header><CREATION_DATE/><ORIGINATOR/></header><body><segment><metadata><OBJECT_NAME>ORBCOMM FM26</OBJECT_NAME><OBJECT_ID>1998-053F</OBJECT_ID><CENTER_NAME>EARTH</CENTER_NAME><REF_FRAME>TEME</REF_FRAME><TIME_SYSTEM>UTC</TIME_SYSTEM><MEAN_ELEMENT_THEORY>SGP4</MEAN_ELEMENT_THEORY></metadata><data><meanElements><EPOCH>2025-04-16T13:22:02.895744</EPOCH><MEAN_MOTION>14.36982755</MEAN_MOTION><ECCENTRICITY>.0006729</ECCENTRICITY><INCLINATION>45.0052</INCLINATION><RA_OF_ASC_NODE>195.5602</RA_OF_ASC_NODE><ARG_OF_PERICENTER>296.3387</ARG_OF_PERICENTER><MEAN_ANOMALY>63.6770</MEAN_ANOMALY></meanElements><tleParameters><EPHEMERIS_TYPE>0</EPHEMERIS_TYPE><CLASSIFICATION_TYPE>U</CLASSIFICATION_TYPE><NORAD_CAT_ID>25480</NORAD_CAT_ID><ELEMENT_SET_NO>999</ELEMENT_SET_NO><REV_AT_EPOCH>38878</REV_AT_EPOCH><BSTAR>.6913E-3</BSTAR><MEAN_MOTION_DOT>.1926E-4</MEAN_MOTION_DOT><MEAN_MOTION_DDOT>0</MEAN_MOTION_DDOT></tleParameters></data></segment></body></omm>
<omm id="CCSDS_OMM_VERS" version="2.0">
<header><CREATION_DATE/><ORIGINATOR/></header><body><segment><metadata><OBJECT_NAME>ORBCOMM FM27</OBJECT_NAME><OBJECT_ID>1998-053G</OBJECT_ID><CENTER_NAME>EARTH</CENTER_NAME><REF_FRAME>TEME</REF_FRAME><TIME_SYSTEM>UTC</TIME_SYSTEM><MEAN_ELEMENT_THEORY>SGP4</MEAN_ELEMENT_THEORY></metadata><data><meanElements><EPOCH>2025-04-16T13:46:46.388928</EPOCH><MEAN_MOTION>14.37919831</MEAN_MOTION><ECCENTRICITY>.0002417</ECCENTRICITY><INCLINATION>45.0040</INCLINATION><RA_OF_ASC_NODE>199.6827</RA_OF_ASC_NODE><ARG_OF_PERICENTER>240.9548</ARG_OF_PERICENTER><MEAN_ANOMALY>119.1058</MEAN_ANOMALY></meanElements><tleParameters><EPHEMERIS_TYPE>0</EPHEMERIS_TYPE><CLASSIFICATION_TYPE>U</CLASSIFICATION_TYPE><NORAD_CAT_ID>25481</NORAD_CAT_ID><ELEMENT_SET_NO>999</ELEMENT_SET_NO><REV_AT_EPOCH>38880</REV_AT_EPOCH><BSTAR>.91963E-3</BSTAR><MEAN_MOTION_DOT>.2661E-4</MEAN_MOTION_DOT><MEAN_MOTION_DDOT>0</MEAN_MOTION_DDOT></tleParameters></data></segment></body></omm>
<omm id="CCSDS_OMM_VERS" version="2.0">
<header><CREATION_DATE/><ORIGINATOR/></header><body><segment><metadata><OBJECT_NAME>ORBCOMM FM28</OBJECT_NAME><OBJECT_ID>1998-053H</OBJECT_ID><CENTER_NAME>EARTH</CENTER_NAME><REF_FRAME>TEME</REF_FRAME><TIME_SYSTEM>UTC</TIME_SYSTEM><MEAN_ELEMENT_THEORY>SGP4</MEAN_ELEMENT_THEORY></metadata><data><meanElements><EPOCH>2025-04-16T11:33:12.755232</EPOCH><MEAN_MOTION>14.38126094</MEAN_MOTION><ECCENTRICITY>.0005365</ECCENTRICITY><INCLINATION>45.0040</INCLINATION><RA_OF_ASC_NODE>137.7165</RA_OF_ASC_NODE><ARG_OF_PERICENTER>321.6576</ARG_OF_PERICENTER><MEAN_ANOMALY>38.3891</MEAN_ANOMALY></meanElements><tleParameters><EPHEMERIS_TYPE>0</EPHEMERIS_TYPE><CLASSIFICATION_TYPE>U</CLASSIFICATION_TYPE><NORAD_CAT_ID>25482</NORAD_CAT_ID><ELEMENT_SET_NO>999</ELEMENT_SET_NO><REV_AT_EPOCH>38947</REV_AT_EPOCH><BSTAR>.6148E-3</BSTAR><MEAN_MOTION_DOT>.174E-4</MEAN_MOTION_DOT><MEAN_MOTION_DDOT>0</MEAN_MOTION_DDOT></tleParameters></data></segment></body></omm>
<omm id="CCSDS_OMM_VERS" version="2.0">
<header><CREATION_DATE/><ORIGINATOR/></header><body><segment><metadata><OBJECT_NAME>ORBCOMM FM30</OBJECT_NAME><OBJECT_ID>1999-065A</OBJECT_ID><CENTER_NAME>EARTH</CENTER_NAME><REF_FRAME>TEME</REF_FRAME><TIME_SYSTEM>UTC</TIME_SYSTEM><MEAN_ELEMENT_THEORY>SGP4</MEAN_ELEMENT_THEORY></metadata><data><meanElements><EPOCH>2025-04-16T21:38:16.520640</EPOCH><MEAN_MOTION>14.37152756</MEAN_MOTION><ECCENTRICITY>.0006673</ECCENTRICITY><INCLINATION>45.0325</INCLINATION><RA_OF_ASC_NODE>19.7705</RA_OF_ASC_NODE><ARG_OF_PERICENTER>50.9515</ARG_OF_PERICENTER><MEAN_ANOMALY>309.1926</MEAN_ANOMALY></meanElements><tleParameters><EPHEMERIS_TYPE>0</EPHEMERIS_TYPE><CLASSIFICATION_TYPE>U</CLASSIFICATION_TYPE><NORAD_CAT_ID>25980</NORAD_CAT_ID><ELEMENT_SET_NO>999</ELEMENT_SET_NO><REV_AT_EPOCH>32563</REV_AT_EPOCH><BSTAR>.14969E-2</BSTAR><MEAN_MOTION_DOT>.4353E-4</MEAN_MOTION_DOT><MEAN_MOTION_DDOT>0</MEAN_MOTION_DDOT></tleParameters></data></segment></body></omm>
<omm id="CCSDS_OMM_VERS" version="2.0">
<header><CREATION_DATE/><ORIGINATOR/></header><body><segment><metadata><OBJECT_NAME>ORBCOMM FM31</OBJECT_NAME><OBJECT_ID>1999-065B</OBJECT_ID><CENTER_NAME>EARTH</CENTER_NAME><REF_FRAME>TEME</REF_FRAME><TIME_SYSTEM>UTC</TIME_SYSTEM><MEAN_ELEMENT_THEORY>SGP4</MEAN_ELEMENT_THEORY></metadata><data><meanElements><EPOCH>2025-04-16T19:16:12.204192</EPOCH><MEAN_MOTION>14.37101336</MEAN_MOTION><ECCENTRICITY>.0003722</ECCENTRICITY><INCLINATION>45.0239</INCLINATION><RA_OF_ASC_NODE>13.7440</RA_OF_ASC_NODE><ARG_OF_PERICENTER>69.0406</ARG_OF_PERICENTER><MEAN_ANOMALY>291.0840</MEAN_ANOMALY></meanElements><tleParameters><EPHEMERIS_TYPE>0</EPHEMERIS_TYPE><CLASSIFICATION_TYPE>U</CLASSIFICATION_TYPE><NORAD_CAT_ID>25981</NORAD_CAT_ID><ELEMENT_SET_NO>999</ELEMENT_SET_NO><REV_AT_EPOCH>32517</REV_AT_EPOCH><BSTAR>.13842E-2</BSTAR><MEAN_MOTION_DOT>.401E-4</MEAN_MOTION_DOT><MEAN_MOTION_DDOT>0</MEAN_MOTION_DDOT></tleParameters></data></segment></body></omm>
<omm id="CCSDS_OMM_VERS" version="2.0">
<header><CREATION_DATE/><ORIGINATOR/></header><body><segment><metadata><OBJECT_NAME>ORBCOMM FM32</OBJECT_NAME><OBJECT_ID>1999-065C</OBJECT_ID><CENTER_NAME>EARTH</CENTER_NAME><REF_FRAME>TEME</REF_FRAME><TIME_SYSTEM>UTC</TIME_SYSTEM><MEAN_ELEMENT_THEORY>SGP4</MEAN_ELEMENT_THEORY></metadata><data><meanElements><EPOCH>2025-04-16T21:04:14.680416</EPOCH><MEAN_MOTION>14.36136418</MEAN_MOTION><ECCENTRICITY>.0005717</ECCENTRICITY><INCLINATION>45.0165</INCLINATION><RA_OF_ASC_NODE>29.5512</RA_OF_ASC_NODE><ARG_OF_PERICENTER>69.4314</ARG_OF_PERICENTER><MEAN_ANOMALY>290.7146</MEAN_ANOMALY></meanElements><tleParameters><EPHEMERIS_TYPE>0</EPHEMERIS_TYPE><CLASSIFICATION_TYPE>U</CLASSIFICATION_TYPE><NORAD_CAT_ID>25982</NORAD_CAT_ID><ELEMENT_SET_NO>999</ELEMENT_SET_NO><REV_AT_EPOCH>32578</REV_AT_EPOCH><BSTAR>.15001E-2</BSTAR><MEAN_MOTION_DOT>.4272E-4</MEAN_MOTION_DOT><MEAN_MOTION_DDOT>0</MEAN_MOTION_DDOT></tleParameters></data></segment></body></omm>

</ndm>
