ORBCOMM FM24            
1 25478U 98053D   25106.54554070  .00002171  00000+0  75864-3 0  9998
2 25478  45.0063 201.3307 0003711 253.4499 106.5942 14.37921737388572
ORBCOMM FM25            
1 25479U 98053E   25106.65476749  .00002234  00000+0  77984-3 0  9992
2 25479  45.0055 199.0762 0005568 275.3981  84.6232 14.37896688388881
ORBCOMM FM26            
1 25480U 98053F   25106.55697796  .00001926  00000+0  69130-3 0  9991
2 25480  45.0052 195.5602 0006729 296.3387  63.6770 14.36982755388780
ORBCOMM FM27            
1 25481U 98053G   25106.57414802  .00002661  00000+0  91963-3 0  9995
2 25481  45.0040 199.6827 0002417 240.9548 119.1058 14.37919831388801
ORBCOMM FM28            
1 25482U 98053H   25106.48139763  .00001740  00000+0  61480-3 0  9994
2 25482  45.0040 137.7165 0005365 321.6576  38.3891 14.38126094389476
ORBCOMM FM30            
1 25980U 99065A   25106.90158010  .00004353  00000+0  14969-2 0  9996
2 25980  45.0325  19.7705 0006673  50.9515 309.1926 14.37152756325631
ORBCOMM FM31            
1 25981U 99065B   25106.80291903  .00004010  00000+0  13842-2 0  9994
2 25981  45.0239  13.7440 0003722  69.0406 291.0840 14.37101336325179
ORBCOMM FM32            
1 25982U 99065C   25106.87794769  .00004272  00000+0  15001-2 0  9999
2 25982  45.0165  29.5512 0005717  69.4314 290.7146 14.36136418325781
